NORAD_CAT_ID,OBJECT_NAME,OBJECT_TYPE,EPOCH,MEAN_MOTION,ECCENTRICITY,INCLINATION,RA_OF_ASC_NODE,ARG_OF_PERICENTER,MEAN_ANOMALY,BSTAR,MEAN_MOTION_DOT,MEAN_MOTION_DDOT,TLE_LINE0,TLE_LINE1,TLE_LINE2,SEMIMAJOR_AXIS,PERIOD,APOGEE,PERIGEE,DECAYED
53631.0,STARLINK-4599,PAYLOAD,2024-04-15 04:02:52,15.08835888,0.0001825,53.2174,106.9811,113.7887,246.3297,2.4025e-05,9.4e-07,0.0,0 STARLINK-4599,1 53631U 22104AV  24106.16866056  .00000094  00000-0  24025-4 0  9998,2 53631  53.2174 106.9811 0001825 113.7887 246.3297 15.08835888 90375,6917.893,95.438,541.02,538.495,0.0
53631.0,STARLINK-4599,PAYLOAD,2024-04-15 08:49:01,15.08836911,0.0001581,53.2167,106.087,100.2699,259.8471,2.384e-05,9.1e-07,0.0,0 STARLINK-4599,1 53631U 22104AV  24106.36738084  .00000091  00000-0  23840-4 0  9990,2 53631  53.2167 106.0870 0001581 100.2699 259.8471 15.08836911 91095,6917.89,95.438,540.849,538.661,0.0
53631.0,STARLINK-4599,PAYLOAD,2024-04-16 05:29:02,15.08838946,0.0001402,53.2159,102.2225,91.5829,268.5324,5.8843e-05,6.49e-06,0.0,0 STARLINK-4599,1 53631U 22104AV  24107.22850146  .00000649  00000-0  58843-4 0  9990,2 53631  53.2159 102.2225 0001402  91.5829 268.5324 15.08838946 90539,6917.884,95.438,540.718,538.779,0.0
53631.0,STARLINK-4599,PAYLOAD,2024-04-16 08:39:48,15.0884356,0.0001412,53.2161,101.6277,90.1829,269.9325,7.5524e-05,9.14e-06,0.0,0 STARLINK-4599,1 53631U 22104AV  24107.36097841  .00000914  00000-0  75524-4 0  9990,2 53631  53.2161 101.6277 0001412  90.1829 269.9325 15.08843560 91241,6917.87,95.437,540.711,538.758,0.0
53631.0,STARLINK-4599,PAYLOAD,2024-04-16 16:36:44,15.08842826,0.0001394,53.2163,100.141,94.6343,265.4808,0.00012867,1.761e-05,0.0,0 STARLINK-4599,1 53631U 22104AV  24107.69217758  .00001761  00000-0  12867-3 0  9998,2 53631  53.2163 100.1410 0001394  94.6343 265.4808 15.08842826 91291,6917.872,95.437,540.701,538.772,0.0
53631.0,STARLINK-4599,PAYLOAD,2024-04-17 05:19:48,15.08851013,0.0001364,53.2163,97.7617,94.7945,265.3202,0.00016751,2.38e-05,0.0,0 STARLINK-4599,1 53631U 22104AV  24108.22209108  .00002380  00000-0  16751-3 0  9992,2 53631  53.2163  97.7617 0001364  94.7945 265.3202 15.08851013 90684,6917.847,95.437,540.655,538.768,0.0
53631.0,STARLINK-4599,PAYLOAD,2024-04-17 08:30:34,15.08859266,0.0001331,53.215,97.1666,103.6238,256.4902,0.00032639,4.913e-05,0.0,0 STARLINK-4599,1 53631U 22104AV  24108.35456740  .00004913  00000-0  32639-3 0  9999,2 53631  53.2150  97.1666 0001331 103.6238 256.4902 15.08859266 91392,6917.822,95.436,540.607,538.766,0.0
53631.0,STARLINK-4599,PAYLOAD,2024-04-18 08:21:23,15.08824602,0.0001337,53.2149,92.7036,105.2366,254.8774,-0.00015476,-2.749e-05,0.0,0 STARLINK-4599,1 53631U 22104AV  24109.34819208 -.00002749  00000-0 -15476-3 0  9998,2 53631  53.2149  92.7036 0001337 105.2366 254.8774 15.08824602 90853,6917.927,95.439,540.717,538.868,0.0
53631.0,STARLINK-4599,PAYLOAD,2024-04-19 05:01:23,15.08847595,0.0001234,53.2139,88.8438,113.1615,246.9507,0.00012604,1.719e-05,0.0,0 STARLINK-4599,1 53631U 22104AV  24110.20930407  .00001719  00000-0  12604-3 0  9994,2 53631  53.2139  88.8438 0001234 113.1615 246.9507 15.08847595 90981,6917.857,95.437,540.576,538.869,0.0
53631.0,STARLINK-4599,PAYLOAD,2024-04-19 22:30:39,15.08839704,0.000168,53.2148,85.5764,60.913,299.203,0.00069342,0.00010765,0.0,0 STARLINK-4599,1 53631U 22104AV  24110.93795154  .00010765  00000-0  69342-3 0  9994,2 53631  53.2148  85.5764 0001680  60.9130 299.2030 15.08839704 91787,6917.881,95.438,540.908,538.584,0.0
53631.0,STARLINK-4599,PAYLOAD,2024-04-20 08:02:56,15.08867289,0.0001648,53.2159,83.7835,84.9273,275.1907,0.00059225,9.157e-05,0.0,0 STARLINK-4599,1 53631U 22104AV  24111.33537753  .00009157  00000-0  59225-3 0  9990,2 53631  53.2159  83.7835 0001648  84.9273 275.1907 15.08867289 91152,6917.797,95.436,540.802,538.522,0.0
53631.0,STARLINK-4599,PAYLOAD,2024-04-21 04:42:58,15.08829223,0.000147,53.217,79.9208,102.0355,258.0802,-0.00020604,-3.565e-05,0.0,0 STARLINK-4599,1 53631U 22104AV  24112.19651018 -.00003565  00000-0 -20604-3 0  9994,2 53631  53.2170  79.9208 0001470 102.0355 258.0802 15.08829223 91286,6917.913,95.438,540.795,538.761,0.0
53631.0,STARLINK-4599,PAYLOAD,2024-04-21 07:53:44,15.088254,0.000134,53.2174,79.3245,86.885,273.2296,0.00016751,2.378e-05,0.0,0 STARLINK-4599,1 53631U 22104AV  24112.32899288  .00002378  00000-0  16751-3 0  9999,2 53631  53.2174  79.3245 0001340  86.8850 273.2296 15.08825400 91997,6917.925,95.438,540.717,538.863,0.0
53631.0,STARLINK-4599,PAYLOAD,2024-04-22 04:33:45,15.08863375,0.00014,53.2175,75.4593,102.6825,257.4324,0.0013548,0.00021353,0.0,0 STARLINK-4599,1 53631U 22104AV  24113.19011014  .00021353  00000-0  13548-2 0  9992,2 53631  53.2175  75.4593 0001400 102.6825 257.4324 15.08863375 91435,6917.809,95.436,540.642,538.705,0.0
53631.0,STARLINK-4599,PAYLOAD,2024-04-22 20:27:37,15.08849548,0.0001472,53.2175,72.4869,93.0134,267.1026,0.00067111,0.00010412,0.0,0 STARLINK-4599,1 53631U 22104AV  24113.85251166  .00010412  00000-0  67111-3 0  9999,2 53631  53.2175  72.4869 0001472  93.0134 267.1026 15.08849548 91537,6917.851,95.437,540.735,538.698,0.0
53631.0,STARLINK-4599,PAYLOAD,2024-04-23 07:35:18,15.08851902,0.0001279,53.2176,70.4041,101.0344,259.0792,0.00055554,8.567e-05,0.0,0 STARLINK-4599,1 53631U 22104AV  24114.31618980  .00008567  00000-0  55554-3 0  9998,2 53631  53.2176  70.4041 0001279 101.0344 259.0792 15.08851902 92297,6917.844,95.437,540.594,538.824,0.0
53631.0,STARLINK-4599,PAYLOAD,2024-04-24 02:39:56,15.08842987,0.0001896,53.2169,66.8309,124.7172,235.3999,0.00038626,5.865e-05,0.0,0 STARLINK-4599,1 53631U 22104AV  24115.11107059  .00005865  00000-0  38626-3 0  9996,2 53631  53.2169  66.8309 0001896 124.7172 235.3999 15.08842987 91727,6917.871,95.437,541.048,538.425,0.0
53631.0,STARLINK-4599,PAYLOAD,2024-04-24 05:50:42,15.08850276,0.0002328,53.2177,66.2365,134.0693,226.0492,0.00061939,9.586e-05,0.0,0 STARLINK-4599,1 53631U 22104AV  24115.24354838  .00009586  00000-0  61939-3 0  9996,2 53631  53.2177  66.2365 0002328 134.0693 226.0492 15.08850276 92439,6917.849,95.437,541.324,538.104,0.0
53631.0,STARLINK-4599,PAYLOAD,2024-04-25 04:06:06,15.08845169,0.0001485,53.2178,62.0778,82.581,277.5351,0.00036009,5.448e-05,0.0,0 STARLINK-4599,1 53631U 22104AV  24116.17091256  .00005448  00000-0  36009-3 0  9994,2 53631  53.2178  62.0778 0001485  82.5810 277.5351 15.08845169 91881,6917.865,95.437,540.757,538.702,0.0
53631.0,STARLINK-4599,PAYLOAD,2024-04-26 02:21:30,15.08845466,0.0001422,53.2171,57.9171,97.4666,262.6488,0.00027298,4.06e-05,0.0,0 STARLINK-4599,1 53631U 22104AV  24117.09827163  .00004060  00000-0  27298-3 0  9999,2 53631  53.2171  57.9171 0001422  97.4666 262.6488 15.08845466 92022,6917.864,95.437,540.712,538.745,0.0
53631.0,STARLINK-4599,PAYLOAD,2024-04-26 13:29:12,15.08845772,0.0001537,53.2174,55.8355,84.664,275.4527,0.00038586,5.859e-05,0.0,0 STARLINK-4599,1 53631U 22104AV  24117.56195327  .00005859  00000-0  38586-3 0  9990,2 53631  53.2174  55.8355 0001537  84.6640 275.4527 15.08845772 92782,6917.863,95.437,540.791,538.664,0.0
53631.0,STARLINK-4599,PAYLOAD,2024-04-27 05:23:03,15.08859251,0.0001511,53.2174,52.8573,93.8087,266.3078,0.00053565,8.252e-05,0.0,0 STARLINK-4599,1 53631U 22104AV  24118.22434629  .00008252  00000-0  53565-3 0  9999,2 53631  53.2174  52.8573 0001511  93.8087 266.3078 15.08859251 92192,6917.822,95.436,540.732,538.641,0.0
53631.0,STARLINK-4599,PAYLOAD,2024-04-28 05:13:51,15.08835039,0.0001491,53.2168,48.3987,102.7461,257.3698,5.7312e-05,6.24e-06,0.0,0 STARLINK-4599,1 53631U 22104AV  24119.21795928  .00000624  00000-0  57312-4 0  9991,2 53631  53.2168  48.3987 0001491 102.7461 257.3698 15.08835039 92340,6917.896,95.438,540.792,538.729,0.0
53631.0,STARLINK-4599,PAYLOAD,2024-04-28 22:43:06,15.0883465,0.000159,53.2167,45.1282,105.4971,254.6197,0.00012738,1.74e-05,0.0,0 STARLINK-4599,1 53631U 22104AV  24119.94660348  .00001740  00000-0  12738-3 0  9990,2 53631  53.2167  45.1282 0001590 105.4971 254.6197 15.08834650 93149,6917.897,95.438,540.862,538.662,0.0
53631.0,STARLINK-4599,PAYLOAD,2024-04-29 11:26:11,15.08851218,0.0001557,53.2178,42.7534,110.1419,249.9741,0.00055274,8.522e-05,0.0,0 STARLINK-4599,1 53631U 22104AV  24120.47652023  .00008522  00000-0  55274-3 0  9998,2 53631  53.2178  42.7534 0001557 110.1419 249.9741 15.08851218 92530,6917.846,95.437,540.788,538.634,0.0
53631.0,STARLINK-4599,PAYLOAD,2024-04-29 22:33:53,15.08850934,0.0001394,53.2179,40.6702,103.1048,257.01,0.00032089,4.824e-05,0.0,0 STARLINK-4599,1 53631U 22104AV  24120.94019735  .00004824  00000-0  32089-3 0  9997,2 53631  53.2179  40.6702 0001394 103.1048 257.0100 15.08850934 93291,6917.847,95.437,540.676,538.748,0.0
53631.0,STARLINK-4599,PAYLOAD,2024-04-30 11:16:57,15.0885087,0.0001376,53.2165,38.2868,79.7907,280.324,0.00013662,1.888e-05,0.0,0 STARLINK-4599,1 53631U 22104AV  24121.47011259  .00001888  00000-0  13662-3 0  9992,2 53631  53.2165  38.2868 0001376  79.7907 280.3240 15.08850870 92689,6917.847,95.437,540.664,538.76,0.0
53631.0,STARLINK-4599,PAYLOAD,2024-04-30 22:24:40,15.08836321,0.0001549,53.2188,36.2134,109.6018,250.5141,-0.00015074,-2.686e-05,0.0,0 STARLINK-4599,1 53631U 22104AV  24121.93379915 -.00002686  00000-0 -15074-3 0  9997,2 53631  53.2188  36.2134 0001549 109.6018 250.5141 15.08836321 93445,6917.892,95.438,540.828,538.685,0.0
53631.0,STARLINK-4599,PAYLOAD,2024-05-01 03:10:49,15.08840725,0.0001522,53.2187,35.3214,104.2539,255.8622,1.7512e-05,-9e-08,0.0,0 STARLINK-4599,1 53631U 22104AV  24122.13251904 -.00000009  00000-0  17512-4 0  9993,2 53631  53.2187  35.3214 0001522 104.2539 255.8622 15.08840725 92784,6917.878,95.438,540.796,538.69,0.0
53631.0,STARLINK-4599,PAYLOAD,2024-05-01 11:07:45,15.08851764,0.0001441,53.2183,33.8349,97.7464,262.3692,0.00033567,5.06e-05,0.0,0 STARLINK-4599,1 53631U 22104AV  24122.46371563  .00005060  00000-0  33567-3 0  9991,2 53631  53.2183  33.8349 0001441  97.7464 262.3692 15.08851764 93523,6917.844,95.437,540.706,538.713,0.0
